OBJECT_NAME,OBJECT_ID,EPOCH,MEAN_MOTION,ECCENTRICITY,INCLINATION,RA_OF_ASC_NODE,ARG_OF_PERICENTER,MEAN_ANOMALY,EPHEMERIS_TYPE,CLASSIFICATION_TYPE,NORAD_CAT_ID,ELEMENT_SET_NO,REV_AT_EPOCH,BSTAR,MEAN_MOTION_DOT,MEAN_MOTION_DDOT
HULIANWANG DIGUI-127,2025-295J,2026-01-02T04:05:46.740768,14.24673462,.0010681,50.0045,285.9695,325.7877,34.2348,0,U,67067,999,303,-.47541E-3,-.1273E-4,0
XIWANG-5 02,2025-296A,2026-01-02T03:18:47.158848,15.13003801,.0002806,41.3529,345.5486,316.4536,43.6062,0,U,67069,999,305,.10578E-2,.18884E-3,0
DEAR-5,2025-296B,2026-01-02T04:16:14.185344,15.17027177,.0019468,41.3576,344.9847,164.3229,195.8198,0,U,67070,999,305,.51472E-3,.10234E-3,0
RAISE-4,2025-297B,2026-01-01T22:44:48.491808,15.07355188,.00114441,97.4861,153.9537,244.8133,115.1909,0,U,67073,999,283,.59277523E-3,.8918E-4,0
STARLINK-36230,2025-298A,2026-01-02T04:00:01.998720,15.52611973,.0003794,69.9987,192.2838,272.9136,355.8275,0,U,67075,999,425,-.33792E-2,-.203533E-2,0
STARLINK-36240,2025-298B,2026-01-02T04:00:01.998720,15.52603794,.0003736,69.9985,192.2812,276.6456,354.0075,0,U,67076,999,425,-.3053E-2,-.184286E-2,0
STARLINK-36243,2025-298C,2026-01-02T04:00:01.998720,15.52603373,.0003667,69.9988,192.2788,274.5898,357.9903,0,U,67077,999,425,-.31828E-2,-.191928E-2,0
STARLINK-36236,2025-298D,2026-01-02T04:00:01.998720,15.52611340,.0003551,69.9989,192.2766,273.1846,1.3109,0,U,67078,999,425,-.33984E-2,-.204644E-2,0
STARLINK-36159,2025-298E,2026-01-02T04:00:01.998720,15.45847904,.00029,69.9991,192.3623,268.9159,291.8397,0,U,67079,999,425,-.46101E-1,-.2003818E-1,0
STARLINK-36158,2025-298F,2026-01-02T04:00:01.998720,15.52624340,.0003765,69.9990,192.2717,267.4720,10.8177,0,U,67080,999,420,-.28969E-2,-.175202E-2,0
STARLINK-35864,2025-298G,2026-01-02T04:00:01.998720,15.52603670,.0003517,69.9987,192.2695,273.5385,6.7094,0,U,67081,999,425,-.31963E-2,-.192717E-2,0
STARLINK-36035,2025-298H,2026-01-02T04:00:01.998720,15.52596340,.0003501,69.9985,192.2678,272.8889,9.2675,0,U,67082,999,425,-.28775E-2,-.173872E-2,0
STARLINK-36170,2025-298J,2026-01-02T04:00:01.998720,15.52606317,.0003549,69.9986,192.2651,272.7173,11.3607,0,U,67083,999,425,-.32611E-2,-.196551E-2,0
STARLINK-36166,2025-298K,2026-01-02T04:00:01.998720,15.52610452,.0003364,69.9988,192.2625,273.5340,12.4584,0,U,67084,999,420,-.33464E-2,-.201582E-2,0
STARLINK-35794,2025-298L,2026-01-02T04:00:01.998720,15.52558478,.0003508,69.9987,192.2598,275.3788,12.5365,0,U,67085,999,425,-.11896E-2,-.72795E-3,0
STARLINK-35841,2025-298M,2026-01-02T04:00:01.998720,15.52598789,.0003403,69.9988,192.2576,273.3669,16.4657,0,U,67086,999,425,-.3103E-2,-.187189E-2,0
STARLINK-35842,2025-298N,2026-01-02T04:00:01.998720,15.42682373,.0003487,69.9988,192.4763,276.9577,183.6968,0,U,67087,999,425,.17167E-3,.7369E-4,0
STARLINK-35882,2025-298P,2026-01-02T04:00:01.998720,15.52606214,.0003479,69.9987,192.2535,273.7610,19.8978,0,U,67088,999,425,-.32161E-2,-.193899E-2,0
STARLINK-35763,2025-298Q,2026-01-02T04:00:01.998720,15.52611818,.0003438,69.9988,192.2507,273.3315,22.2426,0,U,67089,999,425,-.33472E-2,-.201637E-2,0
STARLINK-36060,2025-298R,2026-01-02T04:00:01.998720,15.52599526,.0003492,69.9990,192.2481,273.4440,24.0423,0,U,67090,999,420,-.29463E-2,-.177956E-2,0
STARLINK-36097,2025-298S,2026-01-02T04:00:01.998720,15.52607979,.0003421,69.9989,192.2463,272.5908,26.8200,0,U,67091,999,425,-.33087E-2,-.199351E-2,0
STARLINK-35792,2025-298T,2026-01-02T04:00:01.998720,15.52595842,.0003474,69.9986,192.2439,273.0459,28.2920,0,U,67092,999,420,-.311E-2,-.187584E-2,0
STARLINK-35784,2025-298U,2026-01-02T04:00:01.998720,15.52608218,.0003426,69.9988,192.2414,274.2838,28.9612,0,U,67093,999,425,-.3311E-2,-.199491E-2,0
STARLINK-36202,2025-298V,2026-01-02T04:00:01.998720,15.52609099,.0003331,69.9988,192.2393,273.3649,31.7963,0,U,67094,999,425,-.33671E-2,-.202784E-2,0
STARLINK-36227,2025-298W,2026-01-02T04:00:01.998720,15.52581780,.0003386,69.9987,192.2362,273.7090,33.3727,0,U,67095,999,420,-.25658E-2,-.155329E-2,0
STARLINK-36228,2025-298X,2026-01-02T04:00:01.998720,15.52600621,.0003505,69.9987,192.2344,275.2426,33.7453,0,U,67096,999,420,-.30233E-2,-.182509E-2,0
STARLINK-36222,2025-298Y,2026-01-02T04:00:01.998720,15.52602925,.0003341,69.9987,192.2320,274.1163,36.7952,0,U,67097,999,420,-.31708E-2,-.191207E-2,0
STARLINK-36205,2025-298Z,2026-01-02T04:00:01.998720,15.52913983,.0003236,69.9990,192.2297,276.3813,36.4089,0,U,67098,999,425,-.35315E-1,-.1975097E-1,0
STARLINK-36193,2025-298AA,2026-01-02T04:00:01.998720,15.42591835,.0003199,69.9989,192.4396,288.7769,201.9087,0,U,67099,999,420,.10395E-2,.45456E-3,0
STARLINK-36215,2025-298AB,2026-01-02T04:00:01.998720,15.52597319,.0003372,69.9989,192.2224,273.6924,44.8893,0,U,67100,999,425,-.30363E-2,-.183245E-2,0
STARLINK-36200,2025-298AC,2026-01-02T04:00:01.998720,15.52647606,.0003252,69.9990,192.2276,269.2966,45.4147,0,U,67101,999,425,-.35882E-2,-.216027E-2,0
STARLINK-36255,2025-299A,2026-01-02T04:00:01.998720,15.50711505,.0001833,42.9993,192.4999,274.3300,31.8623,0,U,67102,999,409,-.41309E-2,-.236632E-2,0
STARLINK-36256,2025-299B,2026-01-02T04:00:01.998720,15.50716005,.0001984,42.9992,192.4966,279.9241,28.1924,0,U,67103,999,409,-.51232E-2,-.291428E-2,0
STARLINK-36258,2025-299C,2026-01-02T04:00:01.998720,15.50711455,.0001832,42.9993,192.4906,277.4721,32.5573,0,U,67104,999,409,-.54596E-2,-.309769E-2,0
STARLINK-36261,2025-299D,2026-01-02T04:00:01.998720,15.50719108,.0001898,42.9991,192.4863,285.1066,26.8346,0,U,67105,999,409,-.6207E-2,-.350431E-2,0
STARLINK-36259,2025-299E,2026-01-02T04:00:01.998720,15.50808887,.0001427,42.9992,192.4764,271.2869,44.4550,0,U,67106,999,409,-.71217E-2,-.400736E-2,0
STARLINK-36196,2025-299F,2026-01-02T04:00:01.998720,15.50709901,.0001984,42.9992,192.4819,279.6236,34.2342,0,U,67107,999,409,-.61464E-2,-.347051E-2,0
STARLINK-36208,2025-299G,2026-01-02T04:00:01.998720,15.50817719,.0001331,42.9992,192.4713,266.3185,51.3355,0,U,67108,999,409,-.73317E-2,-.412076E-2,0
STARLINK-35764,2025-299H,2026-01-02T04:00:01.998720,15.50840903,.0001455,42.9992,192.4678,270.4202,49.1495,0,U,67109,999,398,-.79631E-2,-.446007E-2,0
STARLINK-35781,2025-299J,2026-01-02T04:00:01.998720,15.50810142,.0001517,42.9994,192.4571,262.5243,60.8819,0,U,67110,999,404,-.71954E-2,-.404706E-2,0
STARLINK-35875,2025-299K,2026-01-02T04:00:01.998720,15.50818313,.0001245,42.9992,192.4627,264.5793,56.9092,0,U,67111,999,398,-.7364E-2,-.413805E-2,0
STARLINK-35906,2025-299L,2026-01-02T04:00:01.998720,15.50819698,.0001499,42.9994,192.4527,263.2806,62.0366,0,U,67112,999,398,-.74315E-2,-.417445E-2,0
STARLINK-35789,2025-299M,2026-01-02T04:00:01.998720,15.50838093,.0001569,42.9992,192.4473,265.1241,62.1039,0,U,67113,999,398,-.7924E-2,-.443902E-2,0
STARLINK-36180,2025-299N,2026-01-02T04:00:01.998720,15.50834470,.0001465,42.9992,192.4425,258.2283,70.9159,0,U,67114,999,409,-.77985E-2,-.437181E-2,0
STARLINK-35892,2025-299P,2026-01-02T04:00:01.998720,15.50794649,.0000868,42.9991,192.4384,269.1567,61.9255,0,U,67115,999,398,-.76647E-2,-.429451E-2,0
STARLINK-35738,2025-299Q,2026-01-02T04:00:01.998720,15.50796658,.0001052,42.9990,192.4339,264.7425,68.2576,0,U,67116,999,398,-.76357E-2,-.42795E-2,0
STARLINK-35674,2025-299R,2026-01-02T04:00:01.998720,15.50794137,.0001263,42.9989,192.4294,252.2979,82.6166,0,U,67117,999,388,-.68864E-2,-.387919E-2,0
STARLINK-35701,2025-299S,2026-01-02T04:00:01.998720,15.50804901,.0000809,42.9990,192.4247,273.0347,63.7958,0,U,67118,999,404,-.81322E-2,-.454358E-2,0
STARLINK-36179,2025-299T,2026-01-02T04:00:01.998720,15.50905475,.0001649,42.9991,192.4139,266.2320,74.3807,0,U,67119,999,409,-.95952E-2,-.532759E-2,0
STARLINK-36217,2025-299U,2026-01-02T04:00:01.998720,15.50821315,.0001332,42.9989,192.4195,243.5813,95.1577,0,U,67120,999,409,-.8011E-2,-.448238E-2,0
STARLINK-36124,2025-299V,2026-01-02T04:00:01.998720,15.50843007,.0001335,42.9990,192.4044,247.0612,97.4173,0,U,67121,999,409,-.89934E-2,-.500263E-2,0
STARLINK-36188,2025-299W,2026-01-02T04:00:01.998720,15.50854675,.0001377,42.9992,192.4004,247.8558,98.5397,0,U,67122,999,409,-.93442E-2,-.518773E-2,0
STARLINK-36151,2025-299X,2026-01-02T04:00:01.998720,15.50913559,.0001692,42.9991,192.4100,268.2444,74.2792,0,U,67123,999,409,-.97681E-2,-.541894E-2,0
STARLINK-36195,2025-299Y,2026-01-02T04:00:01.998720,15.50935809,.0001914,42.9991,192.3951,269.5573,78.7061,0,U,67124,999,409,-.10344E-1,-.572096E-2,0
STARLINK-36219,2025-299Z,2026-01-02T04:00:01.998720,15.50950503,.000159,42.9993,192.3907,271.4642,78.7087,0,U,67125,999,409,-.10693E-1,-.590327E-2,0
STARLINK-36223,2025-299AA,2026-01-02T04:00:01.998720,15.50936643,.0001897,42.9994,192.3859,270.8199,81.2726,0,U,67126,999,409,-.10402E-1,-.575139E-2,0
STARLINK-36164,2025-299AB,2026-01-02T04:00:01.998720,15.50942799,.0001916,42.9992,192.3810,269.1432,84.8629,0,U,67127,999,409,-.10631E-1,-.587028E-2,0
STARLINK-35685,2025-299AC,2026-01-02T04:00:01.998720,15.50928196,.0001939,42.9989,192.3702,267.7869,90.0659,0,U,67128,999,409,-.10156E-1,-.562296E-2,0
STARLINK-36214,2025-299AD,2026-01-02T04:00:01.998720,15.50954452,.0001483,42.9991,192.3754,264.0410,91.8792,0,U,67129,999,409,-.1074E-1,-.592805E-2,0
STARLINK-36194,2025-299AE,2026-01-02T04:00:01.998720,15.50837409,.000167,42.9990,192.3669,258.5822,101.2396,0,U,67130,999,409,-.79171E-2,-.443535E-2,0
ZIYUAN 3-04 (ZY 3-04),2025-300A,2025-12-27T02:15:00.635904,15.21251311,.00031253,97.4921,75.1314,152.4137,207.7265,0,U,67131,999,167,.94249032E-4,.2035E-4,0
KUIPER-00144,2025-301A,2026-01-02T03:24:54.359712,15.35733976,.0006353,51.8703,26.7442,139.5344,220.6115,0,U,67133,999,350,.7488E-3,.26146E-3,0
KUIPER-00164,2025-301B,2026-01-02T03:13:52.074336,15.36379394,.0003013,51.8726,26.6944,119.5653,240.5634,0,U,67134,999,368,.21165E-2,.76657E-3,0
KUIPER-00175,2025-301C,2026-01-02T03:06:13.469184,15.36914033,.0002619,51.8746,26.6546,73.7117,286.4158,0,U,67135,999,357,.15061E-2,.55226E-3,0
KUIPER-00179,2025-301D,2026-01-02T03:11:28.370400,15.36470847,.0003247,51.8739,26.6810,101.5351,258.6000,0,U,67136,999,368,.73878E-3,.26406E-3,0
